[{"OBJECT_NAME":"STARLINK-32237","OBJECT_ID":"2024-144U","EPOCH":"2025-07-30T03:59:27.463776","MEAN_MOTION":15.30192797,"ECCENTRICITY":0.0001283,"INCLINATION":53.1588,"RA_OF_ASC_NODE":170.4584,"ARG_OF_PERICENTER":82.1363,"MEAN_ANOMALY":277.9783,"EPHEMERIS_TYPE":0,"CLASSIFICATION_TYPE":"U","NORAD_CAT_ID":60443,"ELEMENT_SET_NO":999,"REV_AT_EPOCH":5507,"BSTAR":4.7816e-5,"MEAN_MOTION_DOT":1.057e-5,"MEAN_MOTION_DDOT":0},{"OBJECT_NAME":"STARLINK-32249","OBJECT_ID":"2024-144V","EPOCH":"2025-07-29T15:13:21.069696","MEAN_MOTION":15.30195748,"ECCENTRICITY":0.0001519,"INCLINATION":53.16,"RA_OF_ASC_NODE":172.8225,"ARG_OF_PERICENTER":98.0324,"MEAN_ANOMALY":262.0849,"EPHEMERIS_TYPE":0,"CLASSIFICATION_TYPE":"U","NORAD_CAT_ID":60444,"ELEMENT_SET_NO":999,"REV_AT_EPOCH":5520,"BSTAR":3.7975e-5,"MEAN_MOTION_DOT":7.65e-6,"MEAN_MOTION_DDOT":0},{"OBJECT_NAME":"STARLINK-32228","OBJECT_ID":"2024-144W","EPOCH":"2025-07-30T03:50:20.525856","MEAN_MOTION":15.30191478,"ECCENTRICITY":0.0001393,"INCLINATION":53.1596,"RA_OF_ASC_NODE":170.4165,"ARG_OF_PERICENTER":86.152,"MEAN_ANOMALY":273.964,"EPHEMERIS_TYPE":0,"CLASSIFICATION_TYPE":"U","NORAD_CAT_ID":60445,"ELEMENT_SET_NO":999,"REV_AT_EPOCH":5527,"BSTAR":3.0608e-5,"MEAN_MOTION_DOT":5.47e-6,"MEAN_MOTION_DDOT":0},{"OBJECT_NAME":"STARLINK-32247","OBJECT_ID":"2024-144X","EPOCH":"2025-07-30T03:50:26.122848","MEAN_MOTION":15.30194617,"ECCENTRICITY":0.0001151,"INCLINATION":53.159,"RA_OF_ASC_NODE":160.338,"ARG_OF_PERICENTER":97.4195,"MEAN_ANOMALY":262.6936,"EPHEMERIS_TYPE":0,"CLASSIFICATION_TYPE":"U","NORAD_CAT_ID":60446,"ELEMENT_SET_NO":999,"REV_AT_EPOCH":5541,"BSTAR":3.9222e-5,"MEAN_MOTION_DOT":8.03e-6,"MEAN_MOTION_DDOT":0},{"OBJECT_NAME":"STARLINK-32101","OBJECT_ID":"2024-144Y","EPOCH":"2025-07-29T04:27:08.246304","MEAN_MOTION":15.30195828,"ECCENTRICITY":0.0001287,"INCLINATION":53.1593,"RA_OF_ASC_NODE":175.0031,"ARG_OF_PERICENTER":86.7435,"MEAN_ANOMALY":273.3712,"EPHEMERIS_TYPE":0,"CLASSIFICATION_TYPE":"U","NORAD_CAT_ID":60447,"ELEMENT_SET_NO":999,"REV_AT_EPOCH":5509,"BSTAR":3.1923e-5,"MEAN_MOTION_DOT":5.86e-6,"MEAN_MOTION_DDOT":0},{"OBJECT_NAME":"STARLINK-31844","OBJECT_ID":"2024-150A","EPOCH":"2025-07-30T09:50:59.512128","MEAN_MOTION":15.30185118,"ECCENTRICITY":0.0001199,"INCLINATION":53.1599,"RA_OF_ASC_NODE":259.1971,"ARG_OF_PERICENTER":66.9543,"MEAN_ANOMALY":293.1584,"EPHEMERIS_TYPE":0,"CLASSIFICATION_TYPE":"U","NORAD_CAT_ID":60583,"ELEMENT_SET_NO":999,"REV_AT_EPOCH":5401,"BSTAR":9.8256e-5,"MEAN_MOTION_DOT":2.551e-5,"MEAN_MOTION_DDOT":0},{"OBJECT_NAME":"STARLINK-32204","OBJECT_ID":"2024-150B","EPOCH":"2025-07-30T10:28:59.234880","MEAN_MOTION":15.30191133,"ECCENTRICITY":0.000108,"INCLINATION":53.1584,"RA_OF_ASC_NODE":259.3564,"ARG_OF_PERICENTER":92.2415,"MEAN_ANOMALY":267.871,"EPHEMERIS_TYPE":0,"CLASSIFICATION_TYPE":"U","NORAD_CAT_ID":60584,"ELEMENT_SET_NO":999,"REV_AT_EPOCH":5401,"BSTAR":1.2101e-5,"MEAN_MOTION_DOT":-1.0e-8,"MEAN_MOTION_DDOT":0},{"OBJECT_NAME":"STARLINK-32130","OBJECT_ID":"2024-150C","EPOCH":"2025-07-30T11:02:25.043712","MEAN_MOTION":15.30189593,"ECCENTRICITY":0.0001198,"INCLINATION":53.1588,"RA_OF_ASC_NODE":259.5024,"ARG_OF_PERICENTER":86.7955,"MEAN_ANOMALY":273.3183,"EPHEMERIS_TYPE":0,"CLASSIFICATION_TYPE":"U","NORAD_CAT_ID":60585,"ELEMENT_SET_NO":999,"REV_AT_EPOCH":5385,"BSTAR":3.4035e-5,"MEAN_MOTION_DOT":6.49e-6,"MEAN_MOTION_DDOT":0},{"OBJECT_NAME":"STARLINK-32173","OBJECT_ID":"2024-150D","EPOCH":"2025-07-30T10:10:44.435424","MEAN_MOTION":15.30200294,"ECCENTRICITY":0.00011,"INCLINATION":53.1584,"RA_OF_ASC_NODE":259.2751,"ARG_OF_PERICENTER":25.9093,"MEAN_ANOMALY":334.1962,"EPHEMERIS_TYPE":0,"CLASSIFICATION_TYPE":"U","NORAD_CAT_ID":60586,"ELEMENT_SET_NO":999,"REV_AT_EPOCH":5401,"BSTAR":3.5966e-5,"MEAN_MOTION_DOT":7.06e-6,"MEAN_MOTION_DDOT":0},{"OBJECT_NAME":"STARLINK-31911","OBJECT_ID":"2024-150E","EPOCH":"2025-07-30T10:48:44.483904","MEAN_MOTION":15.30187079,"ECCENTRICITY":0.0001224,"INCLINATION":53.1587,"RA_OF_ASC_NODE":259.4438,"ARG_OF_PERICENTER":87.9455,"MEAN_ANOMALY":272.1686,"EPHEMERIS_TYPE":0,"CLASSIFICATION_TYPE":"U","NORAD_CAT_ID":60587,"ELEMENT_SET_NO":999,"REV_AT_EPOCH":5389,"BSTAR":-6.6025e-6,"MEAN_MOTION_DOT":-5.55e-6,"MEAN_MOTION_DDOT":0},{"OBJECT_NAME":"STARLINK-31994","OBJECT_ID":"2024-150F","EPOCH":"2025-07-30T10:00:06.712704","MEAN_MOTION":15.30191107,"ECCENTRICITY":0.0001209,"INCLINATION":53.1592,"RA_OF_ASC_NODE":259.2311,"ARG_OF_PERICENTER":80.653,"MEAN_ANOMALY":279.4608,"EPHEMERIS_TYPE":0,"CLASSIFICATION_TYPE":"U","NORAD_CAT_ID":60588,"ELEMENT_SET_NO":999,"REV_AT_EPOCH":5389,"BSTAR":4.0982e-5,"MEAN_MOTION_DOT":8.54e-6,"MEAN_MOTION_DDOT":0},{"OBJECT_NAME":"STARLINK-32169","OBJECT_ID":"2024-150G","EPOCH":"2025-07-30T09:45:04.558464","MEAN_MOTION":15.30193174,"ECCENTRICITY":0.0001149,"INCLINATION":53.1582,"RA_OF_ASC_NODE":259.8792,"ARG_OF_PERICENTER":61.7868,"MEAN_ANOMALY":298.3249,"EPHEMERIS_TYPE":0,"CLASSIFICATION_TYPE":"U","NORAD_CAT_ID":60589,"ELEMENT_SET_NO":999,"REV_AT_EPOCH":5400,"BSTAR":1.1384e-5,"MEAN_MOTION_DOT":-2.2e-7,"MEAN_MOTION_DDOT":0},{"OBJECT_NAME":"STARLINK-32209","OBJECT_ID":"2024-150H","EPOCH":"2025-07-30T02:28:04.864512","MEAN_MOTION":15.30194166,"ECCENTRICITY":0.0001041,"INCLINATION":53.1589,"RA_OF_ASC_NODE":260.8266,"ARG_OF_PERICENTER":84.3995,"MEAN_ANOMALY":275.7124,"EPHEMERIS_TYPE":0,"CLASSIFICATION_TYPE":"U","NORAD_CAT_ID":60590,"ELEMENT_SET_NO":999,"REV_AT_EPOCH":5396,"BSTAR":1.1566e-5,"MEAN_MOTION_DOT":-1.7e-7,"MEAN_MOTION_DDOT":0},{"OBJECT_NAME":"STARLINK-32170","OBJECT_ID":"2024-150J","EPOCH":"2025-07-29T21:05:03.049728","MEAN_MOTION":15.30191301,"ECCENTRICITY":0.0001269,"INCLINATION":53.1597,"RA_OF_ASC_NODE":262.2735,"ARG_OF_PERICENTER":81.0556,"MEAN_ANOMALY":279.0588,"EPHEMERIS_TYPE":0,"CLASSIFICATION_TYPE":"U","NORAD_CAT_ID":60591,"ELEMENT_SET_NO":999,"REV_AT_EPOCH":5380,"BSTAR":1.6014e-5,"MEAN_MOTION_DOT":1.15e-6,"MEAN_MOTION_DDOT":0},{"OBJECT_NAME":"STARLINK-31497","OBJECT_ID":"2024-150K","EPOCH":"2025-07-30T10:38:06.154656","MEAN_MOTION":15.3019024,"ECCENTRICITY":0.0001089,"INCLINATION":53.1584,"RA_OF_ASC_NODE":259.3943,"ARG_OF_PERICENTER":91.0754,"MEAN_ANOMALY":269.0371,"EPHEMERIS_TYPE":0,"CLASSIFICATION_TYPE":"U","NORAD_CAT_ID":60592,"ELEMENT_SET_NO":999,"REV_AT_EPOCH":5401,"BSTAR":-4.2569e-6,"MEAN_MOTION_DOT":-4.85e-6,"MEAN_MOTION_DDOT":0},{"OBJECT_NAME":"STARLINK-32161","OBJECT_ID":"2024-150L","EPOCH":"2025-07-30T10:15:18.588672","MEAN_MOTION":15.30192243,"ECCENTRICITY":0.0001121,"INCLINATION":53.1591,"RA_OF_ASC_NODE":259.2977,"ARG_OF_PERICENTER":88.0426,"MEAN_ANOMALY":272.0704,"EPHEMERIS_TYPE":0,"CLASSIFICATION_TYPE":"U","NORAD_CAT_ID":60593,"ELEMENT_SET_NO":999,"REV_AT_EPOCH":5396,"BSTAR":1.896e-5,"MEAN_MOTION_DOT":2.02e-6,"MEAN_MOTION_DDOT":0},{"OBJECT_NAME":"STARLINK-32210","OBJECT_ID":"2024-150M","EPOCH":"2025-07-30T09:55:32.965536","MEAN_MOTION":15.30191734,"ECCENTRICITY":0.0001244,"INCLINATION":53.1591,"RA_OF_ASC_NODE":259.2094,"ARG_OF_PERICENTER":77.4012,"MEAN_ANOMALY":282.7128,"EPHEMERIS_TYPE":0,"CLASSIFICATION_TYPE":"U","NORAD_CAT_ID":60594,"ELEMENT_SET_NO":999,"REV_AT_EPOCH":5401,"BSTAR":4.678e-5,"MEAN_MOTION_DOT":1.026e-5,"MEAN_MOTION_DDOT":0}]
