STARLINK-32237          
1 60443U 24144U   25211.16629009  .00001057  00000+0  47816-4 0  9998
2 60443  53.1588 170.4584 0001283  82.1363 277.9783 15.30192797 55079
STARLINK-32249          
1 60444U 24144V   25210.63427164  .00000765  00000+0  37975-4 0  9998
2 60444  53.1600 172.8225 0001519  98.0324 262.0849 15.30195748 55200
STARLINK-32228          
1 60445U 24144W   25211.15995979  .00000547  00000+0  30608-4 0  9995
2 60445  53.1596 170.4165 0001393  86.1520 273.9640 15.30191478 55271
STARLINK-32247          
1 60446U 24144X   25211.16002457  .00000803  00000+0  39222-4 0  9993
2 60446  53.1590 160.3380 0001151  97.4195 262.6936 15.30194617 55415
STARLINK-32101          
1 60447U 24144Y   25210.18551211  .00000586  00000+0  31923-4 0  9990
2 60447  53.1593 175.0031 0001287  86.7435 273.3712 15.30195828 55093
STARLINK-31844          
1 60583U 24150A   25211.41041102  .00002551  00000+0  98256-4 0  9994
2 60583  53.1599 259.1971 0001199  66.9543 293.1584 15.30185118 54018
STARLINK-32204          
1 60584U 24150B   25211.43679670 -.00000001  00000+0  12101-4 0  9998
2 60584  53.1584 259.3564 0001080  92.2415 267.8710 15.30191133 54015
STARLINK-32130          
1 60585U 24150C   25211.46001208  .00000649  00000+0  34035-4 0  9995
2 60585  53.1588 259.5024 0001198  86.7955 273.3183 15.30189593 53854
STARLINK-32173          
1 60586U 24150D   25211.42412541  .00000706  00000+0  35966-4 0  9996
2 60586  53.1584 259.2751 0001100  25.9093 334.1962 15.30200294 54018
STARLINK-31911          
1 60587U 24150E   25211.45051486 -.00000555  00000+0 -66025-5 0  9992
2 60587  53.1587 259.4438 0001224  87.9455 272.1686 15.30187079 53897
STARLINK-31994          
1 60588U 24150F   25211.41674436  .00000854  00000+0  40982-4 0  9998
2 60588  53.1592 259.2311 0001209  80.6530 279.4608 15.30191107 53890
STARLINK-32169          
1 60589U 24150G   25211.40630276 -.00000022  00000+0  11384-4 0  9994
2 60589  53.1582 259.8792 0001149  61.7868 298.3249 15.30193174 54007
STARLINK-32209          
1 60590U 24150H   25211.10283408 -.00000017  00000+0  11566-4 0  9990
2 60590  53.1589 260.8266 0001041  84.3995 275.7124 15.30194166 53964
STARLINK-32170          
1 60591U 24150J   25210.87850752  .00000115  00000+0  16014-4 0  9997
2 60591  53.1597 262.2735 0001269  81.0556 279.0588 15.30191301 53802
STARLINK-31497          
1 60592U 24150K   25211.44312679 -.00000485  00000+0 -42569-5 0  9990
2 60592  53.1584 259.3943 0001089  91.0754 269.0371 15.30190240 54012
STARLINK-32161          
1 60593U 24150L   25211.42729848  .00000202  00000+0  18960-4 0  9991
2 60593  53.1591 259.2977 0001121  88.0426 272.0704 15.30192243 53968
STARLINK-32210          
1 60594U 24150M   25211.41357599  .00001026  00000+0  46780-4 0  9997
2 60594  53.1591 259.2094 0001244  77.4012 282.7128 15.30191734 54017
